GLOBALSTAR M084         
1 38040U 11080A   25228.75053644 -.00000081  00000+0  12846-3 0  9991
2 38040  51.9983 224.0985 0000410 134.0676  36.8008 12.62268033630315
GLOBALSTAR M080         
1 38041U 11080B   25228.72244635 -.00000084  00000+0  11124-3 0  9992
2 38041  52.0034 225.7976 0000323 325.1701 207.2460 12.62268309630433
GLOBALSTAR M082         
1 38042U 11080C   25228.57929491 -.00000093  00000+0  57766-4 0  9999
2 38042  52.0061 181.6988 0000545   0.8509 171.6793 12.62267858631124
GLOBALSTAR M092         
1 38043U 11080D   25228.55034076 -.00000093  00000+0  60447-4 0  9994
2 38043  52.0073 272.1710 0000364 124.6548  35.6728 12.62265717629579
GLOBALSTAR M090         
1 38044U 11080E   25228.60530995 -.00000091  00000+0  70018-4 0  9995
2 38044  52.0108 175.4757 0000521  41.4883 129.7324 12.62261617631247
GLOBALSTAR M086         
1 38045U 11080F   25228.75766731 -.00000087  00000+0  91307-4 0  9990
2 38045  51.9886 175.4368 0001417  87.4106 299.1380 12.62276045631212
GLOBALSTAR M097         
1 39072U 13005A   25228.85795265 -.00000110  00000+0 -33628-4 0  9995
2 39072  52.0043  89.7429 0000913  66.8715 293.2248 12.62265617578471
GLOBALSTAR M093         
1 39073U 13005B   25228.27756855 -.00000110  00000+0 -34169-4 0  9995
2 39073  52.0110  84.7391 0001119  58.6475 301.4501 12.62264006578353
